{"type": "FeatureCollection", "features": [{"type": "Feature", "id": 5, "geometry": {"type": "Polygon", "coordinates": [[[152.50213255753312, -27.558134070924428], [152.50005613927252, -27.562055050751074], [152.4980602780221, -27.56582359858451], [152.49794788601596, -27.565971611574618], [152.4977803520466, -27.56587113355732], [152.49349667827056, -27.567809044151495], [152.48941700148004, -27.569685695765234], [152.4881562668728, -27.567615447625062], [152.48730229592, -27.567981725544016], [152.48706947992375, -27.56815446752253], [152.49009538348767, -27.577110362890284], [152.4887485648194, -27.575609249746165], [152.48461511696945, -27.57801460235885], [152.48200264429664, -27.57765804709937], [152.4814322443226, -27.577947629045596], [152.48226651460254, -27.58303633116757], [152.48071885698477, -27.589384434065405], [152.48050772190038, -27.590250378051472], [152.480213550783, -27.591456865032054], [152.4801920187744, -27.591545147030597], [152.4802073516784, -27.592307110038096], [152.4799525115079, -27.593909015025677], [152.47943015949204, -27.594493974978924], [152.47862921399394, -27.59922091393741], [152.47870737797547, -27.599301752945745], [152.48222362614428, -27.6029349913197], [152.48224973291036, -27.60480122833694], [152.48227120572474, -27.60628223935069], [152.4827139554599, -27.60803286540792], [152.48293019433905, -27.608819311435365], [152.48260478227706, -27.60960573440959], [152.48215367219106, -27.610695933373794], [152.48178749117776, -27.611124453341212], [152.48087846814462, -27.61218814326028], [152.48089889006678, -27.61279922526706], [152.4809239679735, -27.61353079727529], [152.47995478165885, -27.616921415206683], [152.47948338960944, -27.61773349816676], [152.47857271351722, -27.619276938089403], [152.47666876246728, -27.621349570918674], [152.4640502890384, -27.619725439666738], [152.4636568537503, -27.622398729649078], [152.46062320112944, -27.621996935348115], [152.46059693807555, -27.622455436349174], [152.45957652907262, -27.6233746812562], [152.448504378589, -27.620836230149603], [152.44830657561596, -27.620791832129843], [152.44801964350236, -27.621962624110942], [152.44719552049204, -27.622769373036405], [152.44715205346438, -27.623031707034198], [152.4389608634874, -27.621952393222212], [152.43858829725366, -27.624170513203033], [152.4334282348969, -27.623501643691775], [152.43296979284887, -27.624292329653045], [152.43293522957947, -27.626502305666975], [152.43111270539427, -27.62960258951264], [152.43090150342073, -27.62957402349167], [152.41970673182453, -27.62805744938237], [152.41849105706902, -27.635241746319686], [152.41812698484233, -27.63739648330092], [152.4179667378451, -27.637515708286152], [152.41792959780847, -27.63784456228507], [152.4168297569178, -27.637927062177962], [152.41859676565002, -27.638540454355923], [152.41905330727047, -27.64120995142162], [152.41860132520011, -27.642177187384927], [152.41752110324882, -27.64273314928345], [152.41663499831682, -27.64296305119844], [152.41503003158812, -27.64217927203499], [152.4145408856535, -27.642080804986307], [152.41432337368252, -27.642036995964617], [152.4140366377208, -27.6419792539361], [152.41368103675285, -27.64203370990167], [152.41348384977053, -27.642063914882552], [152.41327708879174, -27.6420735708624], [152.41323477677446, -27.64225062685964], [152.41267758475212, -27.64292214781032], [152.4125995546757, -27.643609985808048], [152.41297381952288, -27.644517428851863], [152.4139466493506, -27.64505468895139], [152.4147145281869, -27.64570406003174], [152.4153001440655, -27.646171957092818], [152.41638872592128, -27.646380573201075], [152.41792876860518, -27.647583148361473], [152.4183383484861, -27.648186296406315], [152.41906731532976, -27.648809620482645], [152.41925623728923, -27.64897116250245], [152.41956375320046, -27.6494190985361], [152.41942748912876, -27.650118916528218], [152.41901491298933, -27.65161071649949], [152.41898003697742, -27.651736840497087], [152.4183727099498, -27.65249565144356], [152.41944138385048, -27.652358352547186], [152.42047247767292, -27.65288780565241], [152.42045620554126, -27.65396714865924], [152.42044222742817, -27.654894425665162], [152.42041910038552, -27.65525928066576], [152.418447059275, -27.65788953049317], [152.41328799490105, -27.657365797983488], [152.4125607054789, -27.661422087944064], [152.41665394196582, -27.661969310349452], [152.41608023961334, -27.665325953319602], [152.41216948410158, -27.664820006932395], [152.41187174313868, -27.664781486902942], [152.41175709314183, -27.664856901892282], [152.41155533916714, -27.664830265872332], [152.41147858318783, -27.664730606864033], [152.4069450547538, -27.664143926415278], [152.40662502180186, -27.6640370473831], [152.40636706085934, -27.66379905335598], [152.40465382224102, -27.662218449175743], [152.4033074955161, -27.66117843003569], [152.40303949055777, -27.661077363008648], [152.4004390518798, -27.660761495751522], [152.3969247319811, -27.663037871425246], [152.39672291100626, -27.663011630405276], [152.3934790104123, -27.662584130084323], [152.38825300906635, -27.661893565567294], [152.38439981594837, -27.666247259224356], [152.3833247709773, -27.666960988124735], [152.37565157519708, -27.671949679413114], [152.3751682931633, -27.67264955037132], [152.37465964196448, -27.674709322337716], [152.3745143558877, -27.67545946232935], [152.37382224047664, -27.67940086429258], [152.3737994714568, -27.679581488291767], [152.3725379837012, -27.6868165312251], [152.37243716971392, -27.686802710215147], [152.37117294695668, -27.69405250514836], [152.37935500192526, -27.695181022957666], [152.37955671189997, -27.695208284977618], [152.37519453523612, -27.72062722875017], [152.3723415125125, -27.737099367600173], [152.371138139664, -27.73693768948122], [152.3717170493364, -27.739076438554584], [152.3719409322776, -27.73935556657867], [152.37298452707307, -27.740087206686514], [152.37422233690774, -27.74033107880951], [152.3752168547677, -27.740584569908805], [152.37581943563572, -27.741120430971918], [152.37636910253295, -27.741465788028417], [152.37657048347128, -27.74178684105063], [152.3778028241875, -27.742993142180676], [152.3786639769892, -27.743836078271503], [152.37828099499063, -27.74416295823664], [152.38271925716256, -27.746937859692654], [152.38529793559798, -27.74922543396299], [152.38706205410742, -27.751632985154504], [152.38721153506583, -27.751837019170754], [152.38776430091218, -27.752591361230778], [152.3897004973737, -27.755233635440987], [152.39232945700826, -27.75586484870332], [152.39238740699585, -27.75591341170937], [152.39247792397694, -27.7559862557188], [152.3932349698188, -27.756595549797705], [152.39374236166617, -27.75738130985352], [152.3941822964222, -27.758964699909022], [152.39546802008593, -27.760546347047264], [152.3958517999856, -27.76101793108856], [152.40087388523386, -27.762654824593177], [152.40215923716318, -27.76209109171462], [152.40776894962136, -27.761512480259587], [152.40838462056206, -27.761448688319394], [152.40977783435122, -27.761920578459563], [152.4114409981431, -27.762133627624195], [152.4125039420407, -27.76202163772747], [152.41346086489776, -27.762331149823662], [152.41449810469555, -27.76304780693091], [152.4153296185951, -27.763125680012966], [152.4170276735414, -27.762060106171006], [152.41850201616623, -27.76378721732907], [152.4187592251104, -27.76401123435603], [152.4206276437046, -27.76563854555189], [152.4230300833111, -27.76669412179565], [152.42476621002672, -27.767456904971784], [152.42508652497432, -27.767597639004297], [152.4270338387166, -27.767958836198048], [152.42897342551166, -27.76790141438775], [152.42958084950698, -27.767403425443405], [152.43095970549626, -27.766272933569734], [152.43570278222754, -27.76425759701908], [152.43594845816878, -27.764514888045156], [152.43937901795633, -27.763202848371378], [152.44112416393116, -27.76186783853211], [152.44133147392813, -27.761709248551192], [152.44153888092507, -27.76155058557024], [152.4420203979416, -27.76099296161316], [152.44245554101073, -27.76005128264848], [152.44265132914228, -27.758817928657994], [152.44275207514542, -27.758703303666994], [152.44367210917468, -27.757656524749017], [152.44405705815853, -27.757447684785166], [152.44468197613224, -27.75710866884382], [152.44672931197695, -27.756556981040344], [152.44708824794972, -27.756460255074817], [152.44793313888556, -27.756232589155932], [152.44866621586053, -27.755788811224352], [152.44894260287325, -27.75544280524879], [152.4491667338835, -27.755162212268573], [152.45020797123675, -27.751395409341193], [152.45058020636304, -27.750048800367164], [152.45100226143515, -27.749095645401116], [152.45147053546202, -27.748466549442142], [152.45176770447904, -27.748067322468156], [152.45333644147718, -27.746699980611407], [152.45350214547707, -27.746555547626546], [152.4535732084822, -27.74645137463268], [152.4537737584968, -27.7461573826501], [152.4538519735024, -27.746042722656874], [152.45399550551284, -27.745832311669293], [152.45444097261213, -27.744638879703682], [152.45458925161498, -27.74448592171704], [152.45484396161967, -27.74422317973995], [152.45513039461042, -27.744045830766662], [152.45535452860307, -27.74390705678757], [152.45587272860757, -27.743414678834586], [152.45599427267078, -27.742798178841706], [152.45598307374624, -27.74219928683589], [152.45595591192927, -27.74074685382183], [152.4561534719849, -27.740124661836354], [152.45702004896168, -27.7395486719169], [152.45767020189297, -27.73953007498056], [152.45851342777178, -27.739764947065193], [152.45918543467528, -27.73995212813263], [152.4596379966102, -27.740078185178028], [152.45934059161164, -27.740328591150828], [152.45941311555876, -27.74069084616075], [152.45967852753316, -27.740663413186574], [152.45999733751, -27.74057023621714], [152.4602630774925, -27.740476858242527], [152.46058185846925, -27.740383696273103], [152.46095370144022, -27.740290720308856], [152.46132579141693, -27.740150560344286], [152.46164503340538, -27.739962991374163], [152.46185991540918, -27.739743125393527], [152.46199658935345, -27.740072321409514], [152.4610836921517, -27.74250258933897], [152.47346507958198, -27.7442589005685], [152.4824348924448, -27.74553055245967], [152.4897593185162, -27.74656849318758], [152.5007175121271, -27.748120591277015], [152.50364855684214, -27.731738374436755], [152.50585200113173, -27.719419338556822], [152.5117094003905, -27.72024540713942], [152.51216950366594, -27.717623980164156], [152.51221661368425, -27.71743519716732], [152.5132022292808, -27.7117670942198], [152.51190514344486, -27.71158514309078], [152.5139507836328, -27.70022509420288], [152.50283819203923, -27.6986464410975], [152.502632958107, -27.698280171074426], [152.50272822110742, -27.698193372083143], [152.50286262209872, -27.698145532095943], [152.503349659065, -27.697989330142647], [152.50349548206373, -27.697871693156035], [152.50389801411706, -27.697089464189503], [152.50404324912165, -27.6969249922025], [152.50470801214047, -27.696189315262068], [152.5048252241662, -27.695879706271175], [152.50481807121122, -27.69552284626766], [152.50481330324135, -27.695284963265316], [152.5048309242454, -27.69523668326668], [152.5048597432468, -27.69520013126924], [152.50487422724765, -27.695180335270518], [152.50489327024877, -27.695154295272157], [152.5049165092525, -27.695103862274088], [152.5049062572628, -27.69503047427247], [152.5049449402651, -27.694977761275865], [152.50495274127653, -27.69487919027588], [152.5049425262915, -27.69476680527398], [152.50495034930407, -27.69465904727388], [152.50497360331175, -27.69457651027556], [152.50502776131808, -27.69447795328011], [152.5051051503239, -27.694363319286815], [152.5051567153263, -27.694299147291385], [152.50521600732574, -27.694251016296814], [152.50528564032592, -27.694189124303207], [152.50533981333365, -27.694079087307664], [152.5053346873385, -27.69404469530685], [152.50536048934245, -27.693989665308962], [152.50540691334544, -27.69392549331307], [152.5054044323582, -27.693824612312007], [152.50541738937014, -27.69371683231241], [152.50540975238437, -27.693609082310832], [152.505445902395, -27.69349215231348], [152.50542535440772, -27.6934072903108], [152.505386782421, -27.6933339023064], [152.50534822543824, -27.69322841730177], [152.5052916454607, -27.693097681295225], [152.50528915747324, -27.69299909529417], [152.50531240348036, -27.692921125295896], [152.50531509249683, -27.692785867295104], [152.50530486350993, -27.692689553293317], [152.50528173652205, -27.692611583290415], [152.5052740775352, -27.692512989288893], [152.50525098055073, -27.692407497285807], [152.50520984656694, -27.692313470281032], [152.50516348857744, -27.692269884276126], [152.50511201958926, -27.692219414270642], [152.5050863226032, -27.692130007267398], [152.50505548461703, -27.69204513826372], [152.50500919463465, -27.69194422725838], [152.50492941365619, -27.69184099924973], [152.50484706967822, -27.691735499240785], [152.50477498569424, -27.691668965233184], [152.50473793371566, -27.691529677228427], [152.50470918172547, -27.69147531022521], [152.5046721457382, -27.691405259220996], [152.5046104027591, -27.691290588214017], [152.50456154177698, -27.691189647208446], [152.50449209479993, -27.691065804200623], [152.50445331481572, -27.690972917196063], [152.5044049528307, -27.690894276190747], [152.50435194184655, -27.69081353418488], [152.50427888186897, -27.69069729817679], [152.50415219188957, -27.69064226816389], [152.50403915191868, -27.690506161151703], [152.50391563595073, -27.690357052138374], [152.50378946797548, -27.690267586125263], [152.50366846300034, -27.690173515112637], [152.5036273130145, -27.690095537107997], [152.5036196470236, -27.690029033106704], [152.50362997302682, -27.689994648107458], [152.5036480410293, -27.689957969108953], [152.50368156103116, -27.6899144361119], [152.5037692400367, -27.689792917119565], [152.50381052304155, -27.68971729312301], [152.50385960005667, -27.689552203126542], [152.50386484507118, -27.6894306841261], [152.5038751940775, -27.689371087126695], [152.50384953409338, -27.689265557123345], [152.50380067411234, -27.68915548211768], [152.50379045912706, -27.689045445115795], [152.5037493461461, -27.688928478110835], [152.5037288281631, -27.688809246107848], [152.50372627216885, -27.68876568310729], [152.50372379818296, -27.688653306106172], [152.50371613919268, -27.68858225710482], [152.50372908120124, -27.68850199910549], [152.5037600232038, -27.688453854108168], [152.50378840220583, -27.68841259211061], [152.5038245002082, -27.68836215211377], [152.5038503242136, -27.688295663115774], [152.50386065821965, -27.68823836011634], [152.50385043623072, -27.688158103114727], [152.5038627142375, -27.688092508115385], [152.50387535824527, -27.688018687116063], [152.50384362626363, -27.687898197112013], [152.50383934927328, -27.687824317111005], [152.50383961828072, -27.68776412311056], [152.50383677228723, -27.68771486810987], [152.50382494029583, -27.687655658108277], [152.5037551653134, -27.687574603100778], [152.50360760733912, -27.687497266085675], [152.503523147356, -27.687435255076856], [152.50333756839228, -27.687306174057582], [152.50326498441152, -27.687214949049732], [152.503209433428, -27.687130303043595], [152.50309289144693, -27.687080078031723], [152.5029249474629, -27.68709897301542], [152.5028446304703, -27.6871095080076], [152.50275722748472, -27.687070205998694], [152.50270163150046, -27.686992049992586], [152.50261689552102, -27.68690080198355], [152.5024248055441, -27.6868827869645], [152.50232297756497, -27.686804465953877], [152.5023432515848, -27.686626970954478], [152.5023900105945, -27.686508044958167], [152.50248084860743, -27.68632429896566], [152.50253735361653, -27.686201058970266], [152.5025647716312, -27.686058245971797], [152.5025555706467, -27.685941263969973], [152.5025052716737, -27.685767859963715], [152.50251322869093, -27.68562280396334], [152.50259660070003, -27.68547584897041], [152.50274333970577, -27.685300968983423], [152.5029168637089, -27.68512400999911], [152.50314675171725, -27.68485416501961], [152.50336882371238, -27.6846990440402], [152.50344071474154, -27.684400462044962], [152.5035110037599, -27.684191205050233], [152.50364044176493, -27.68403686606174], [152.50380059276804, -27.683871583076186], [152.5038781747704, -27.683784806083107], [152.50392886177, -27.68374337308779], [152.50411232476242, -27.683643371105028], [152.50424796275948, -27.68354798111761], [152.5043458927652, -27.683416292126203], [152.50449298978188, -27.6831525271386], [152.5045852208026, -27.682905086145738], [152.50467707082, -27.682684064153023], [152.50476448883705, -27.682469994159973], [152.50465372085108, -27.68245416914896], [152.5048573679691, -27.681324855160096], [152.50501260096578, -27.6812152421745], [152.50387371309475, -27.681174912062197], [152.5039144521124, -27.680996195064825], [152.50407616716265, -27.68045013407641], [152.50406020821816, -27.68001652507148], [152.50393719127823, -27.679640800056394], [152.50361207841402, -27.678831213018068], [152.50381962155134, -27.677542210028353], [152.50420616574812, -27.67561718105125], [152.50517453983636, -27.674057380134265], [152.50646740191988, -27.672249705247207], [152.50674063693987, -27.671848983270937], [152.5085500488504, -27.670984261442086], [152.50948595976215, -27.670874313533304], [152.51052085270072, -27.670462132631855], [152.5112160966956, -27.669894942695823], [152.5113817156523, -27.670098387713725], [152.5110756374781, -27.671770588696695], [152.52708641944483, -27.674118082290583], [152.52717707045625, -27.673947322298144], [152.5274965946389, -27.672196339315835], [152.52784465783787, -27.670289020335126], [152.52787453485493, -27.670125278336787], [152.52802757693294, -27.669363695345883], [152.52803203994011, -27.669301855345843], [152.52813875494303, -27.669184903355447], [152.52820187595455, -27.66903635436048], [152.52820953496612, -27.66893682136043], [152.52813406099204, -27.668794083351912], [152.52815411101253, -27.66861129035243], [152.52820151902108, -27.668501007356266], [152.52828480906823, -27.668048660360878], [152.5283354800969, -27.667773570363718], [152.52876310633872, -27.665451328387586], [152.5288077723662, -27.665190878389954], [152.52906465450872, -27.663818280404413], [152.5291918875125, -27.663676041415872], [152.53052586924807, -27.66463742655471], [152.53255909398908, -27.66494279175725], [152.53598371673826, -27.663964148086762], [152.5395946035261, -27.662511769430928], [152.54310013832358, -27.661074716764873], [152.55144309683533, -27.657705572560296], [152.54768103916217, -27.650316973131613], [152.54758360819267, -27.6501568901208], [152.54388647449937, -27.642869960699365], [152.53552741599444, -27.646195496902315], [152.5341840174695, -27.643544497749215], [152.5315438736211, -27.644633400497867], [152.5299176211873, -27.64149482831312], [152.52883372656476, -27.639402861189982], [152.52883242964432, -27.63876340018484], [152.52842571080683, -27.63781001713729], [152.52516021891728, -27.631718287768035], [152.52523154295758, -27.63133125977204], [152.52369306647867, -27.628477016598207], [152.52033181167064, -27.62987156427838], [152.5185016063084, -27.62633162907045], [152.52248521607868, -27.624697277449595], [152.5199509609707, -27.619723023161146], [152.5255452366436, -27.61746601269397], [152.5219113518994, -27.61051979128175], [152.52305456083764, -27.61001811339035], [152.52284387390768, -27.60963714336662], [152.52465784508908, -27.598524207457807], [152.52647881886227, -27.598761418638905], [152.5277856967783, -27.59023185270052], [152.52800138376293, -27.59016687672119], [152.52795460182455, -27.589710297713], [152.53201142731905, -27.59024178511652], [152.53254803227904, -27.590096372168222], [152.5329031355117, -27.587909589185976], [152.53379651940054, -27.588025900274854], [152.53444012282347, -27.58405285630701], [152.53038717932728, -27.583530524903885], [152.53180098018663, -27.575364740978856], [152.52927494250204, -27.57502628372753], [152.52950575465107, -27.573622824739257], [152.52624659505634, -27.573200950415107], [152.52709117159964, -27.56807936945799], [152.52701032460968, -27.568068424449912], [152.52814878930678, -27.561449879509947], [152.517687899617, -27.56001280346917], [152.51738089865543, -27.55997061843866], [152.5071699539273, -27.55862383542365], [152.50714114190816, -27.5588036174222], [152.50213255753312, -27.558134070924428]]]}, "properties": {"_sublayer": "Koala priority area", "source": "QLD DETSI KoalaPlan MapServer layer 1"}}]}